{
    "links": {
        "self": "http://www.neowsapp.com/rest/v1/neo/3376006?api_key=iIulBulltgU6a56xZRHN4H3l9WmuAYTsLGpBGhQ2"
    },
    "id": "3376006",
    "neo_reference_id": "3376006",
    "name": "(2007 JD)",
    "designation": "2007 JD",
    "nasa_jpl_url": "http://ssd.jpl.nasa.gov/sbdb.cgi?sstr=3376006",
    "absolute_magnitude_h": 23.1,
    "estimated_diameter": {
        "kilometers": {
            "estimated_diameter_min": 0.063760979,
            "estimated_diameter_max": 0.1425738833
        },
        "meters": {
            "estimated_diameter_min": 63.7609789875,
            "estimated_diameter_max": 142.5738833281
        },
        "miles": {
            "estimated_diameter_min": 0.0396192233,
            "estimated_diameter_max": 0.0885912765
        },
        "feet": {
            "estimated_diameter_min": 209.1895703015,
            "estimated_diameter_max": 467.7620993781
        }
    },
    "is_potentially_hazardous_asteroid": false,
    "close_approach_data": [
        {
            "close_approach_date": "2007-05-11",
            "close_approach_date_full": "2007-May-11 09:28",
            "epoch_date_close_approach": 1178875680000,
            "relative_velocity": {
                "kilometers_per_second": "25.02771199",
                "kilometers_per_hour": "90099.7631641307",
                "miles_per_hour": "55984.4889505122"
            },
            "miss_distance": {
                "astronomical": "0.0302108659",
                "lunar": "11.7520268351",
                "kilometers": "4519481.189495633",
                "miles": "2808275.3896924154"
            },
            "orbiting_body": "Earth"
        }
    ],
    "orbital_data": {
        "orbit_id": "9",
        "orbit_determination_date": "2017-04-06 09:06:28",
        "first_observation_date": "2007-05-07",
        "last_observation_date": "2007-05-11",
        "data_arc_in_days": 4,
        "observations_used": 38,
        "orbit_uncertainty": "8",
        "minimum_orbit_intersection": ".000949069",
        "jupiter_tisserand_invariant": "2.664",
        "epoch_osculation": "2454228.5",
        "eccentricity": ".8143183438778068",
        "semi_major_axis": "2.852111413742841",
        "inclination": "12.29707620640755",
        "ascending_node_longitude": "228.8442482147365",
        "orbital_period": "1759.333437168914",
        "perihelion_distance": ".5295847707487806",
        "perihelion_argument": "93.13942705146033",
        "aphelion_distance": "5.174638056736902",
        "perihelion_time": "2454276.436629611271",
        "mean_anomaly": "350.1910653799501",
        "mean_motion": ".204622951166838",
        "equinox": "J2000",
        "orbit_class": {
            "orbit_class_type": "APO",
            "orbit_class_description": "Near-Earth asteroid orbits which cross the Earth’s orbit similar to that of 1862 Apollo",
            "orbit_class_range": "a (semi-major axis) > 1.0 AU; q (perihelion) < 1.017 AU"
        }
    },
    "is_sentry_object": false
}